NORAD_CAT_ID,OBJECT_NAME,OBJECT_TYPE,EPOCH,MEAN_MOTION,ECCENTRICITY,INCLINATION,RA_OF_ASC_NODE,ARG_OF_PERICENTER,MEAN_ANOMALY,BSTAR,MEAN_MOTION_DOT,MEAN_MOTION_DDOT,TLE_LINE0,TLE_LINE1,TLE_LINE2,SEMIMAJOR_AXIS,PERIOD,APOGEE,PERIGEE,DECAYED
55914.0,STARLINK-5856,PAYLOAD,2023-04-04 14:00:01,15.69908664,0.0003848,69.9978,130.9972,273.5348,183.3891,0.00017988,0.0002146,0.0,0 STARLINK-5856,1 55914U 23037A   23094.58334491  .00021460  00000-0  17988-3 0  9993,2 55914  69.9978 130.9972 0003848 273.5348 183.3891 15.69908664  3325,6737.295,91.725,361.753,356.568,0.0
55914.0,STARLINK-5856,PAYLOAD,2023-04-04 22:00:00,15.69881972,0.0003835,69.9989,130.0599,266.9321,273.3245,0.00078457,0.00095042,0.0,0 STARLINK-5856,1 55914U 23037A   23094.91667824  .00095042  00000-0  78457-3 0  9994,2 55914  69.9989 130.0599 0003835 266.9321 273.3245 15.69881972  1307,6737.372,91.727,361.82,356.653,0.0
55914.0,STARLINK-5856,PAYLOAD,2023-04-05 06:00:00,15.69937513,0.0003703,69.9993,129.1227,269.7585,353.8191,-0.00034277,-0.00041252,0.0,0 STARLINK-5856,1 55914U 23037A   23095.25001157 -.00041252  00000-0 -34277-3 0  9991,2 55914  69.9993 129.1227 0003703 269.7585 353.8191 15.69937513  3439,6737.213,91.723,361.573,356.583,0.0
55914.0,STARLINK-5856,PAYLOAD,2023-04-05 14:00:01,15.69939383,0.0003625,69.999,128.1854,273.6064,73.3076,-0.00010271,-0.00012553,0.0,0 STARLINK-5856,1 55914U 23037A   23095.58334491 -.00012553  00000-0 -10271-3 0  9997,2 55914  69.9990 128.1854 0003625 273.6064  73.3076 15.69939383  1307,6737.207,91.723,361.515,356.63,0.0
55914.0,STARLINK-5856,PAYLOAD,2023-04-05 16:00:00,15.69978142,0.000354,69.9991,127.9511,272.0618,185.6797,-0.00088408,-0.00105434,0.0,0 STARLINK-5856,1 55914U 23037A   23095.66667824 -.00105434  00000-0 -88408-3 0  9993,2 55914  69.9991 127.9511 0003540 272.0618 185.6797 15.69978142  3494,6737.097,91.721,361.346,356.577,0.0
55914.0,STARLINK-5856,PAYLOAD,2023-04-05 22:00:00,15.69853866,0.0003597,69.9992,127.2482,264.6925,165.592,0.0010747,0.00130666,0.0,0 STARLINK-5856,1 55914U 23037A   23095.91667824  .00130666  00000-0  10747-2 0  9994,2 55914  69.9992 127.2482 0003597 264.6925 165.5920 15.69853866  1303,6737.452,91.728,361.741,356.894,0.0
55914.0,STARLINK-5856,PAYLOAD,2023-04-06 10:00:00,15.69902463,0.000353,69.9995,125.8424,270.8466,104.4167,0.00032382,0.00038871,0.0,0 STARLINK-5856,1 55914U 23037A   23096.41667824  .00038871  00000-0  32382-3 0  9995,2 55914  69.9995 125.8424 0003530 270.8466 104.4167 15.69902463  3611,6737.313,91.725,361.556,356.8,0.0
55914.0,STARLINK-5856,PAYLOAD,2023-04-06 14:00:01,15.69927266,0.0003567,69.9992,125.3736,270.6413,326.3487,1.5297e-05,1.627e-05,0.0,0 STARLINK-5856,1 55914U 23037A   23096.58335648  .00001627  00000-0  15297-4 0  9995,2 55914  69.9992 125.3736 0003567 270.6413 326.3487 15.69927266  1301,6737.242,91.724,361.51,356.704,0.0
55914.0,STARLINK-5856,PAYLOAD,2023-04-06 22:00:00,15.69908543,0.0003527,69.9993,124.4365,264.9999,55.2778,0.00021974,0.00026276,0.0,0 STARLINK-5856,1 55914U 23037A   23096.91667824  .00026276  00000-0  21974-3 0  9991,2 55914  69.9993 124.4365 0003527 264.9999  55.2778 15.69908543  1309,6737.296,91.725,361.537,356.784,0.0
55914.0,STARLINK-5856,PAYLOAD,2023-04-07 08:00:01,15.69910122,0.0003454,69.9993,123.2651,269.9689,244.4791,9.2129e-05,0.00010873,0.0,0 STARLINK-5856,1 55914U 23037A   23097.33334491  .00010873  00000-0  92129-4 0  9996,2 55914  69.9993 123.2651 0003454 269.9689 244.4791 15.69910122  3758,6737.291,91.725,361.483,356.829,0.0
55914.0,STARLINK-5856,PAYLOAD,2023-04-07 14:00:01,15.69976304,0.000338,69.9991,122.5621,271.1702,215.7463,-0.00062775,-0.00075185,0.0,0 STARLINK-5856,1 55914U 23037A   23097.58334491 -.00075185  00000-0 -62775-3 0  9995,2 55914  69.9991 122.5621 0003380 271.1702 215.7463 15.69976304  1304,6737.102,91.721,361.244,356.69,0.0
55914.0,STARLINK-5856,PAYLOAD,2023-04-08 04:45:12,15.69916099,0.00043,69.999,120.8339,273.4826,86.5878,1.0673e-05,1.07e-05,0.0,0 STARLINK-5856,1 55914U 23037A   23098.19806271  .00001070  00000-0  10673-4 0  9994,2 55914  69.9990 120.8339 0004300 273.4826  86.5878 15.69916099  3890,6737.274,91.725,362.036,356.242,0.0
55914.0,STARLINK-5856,PAYLOAD,2023-04-08 10:52:12,15.69928228,0.0003713,69.999,120.1172,264.4767,95.6006,5.9728e-05,6.976e-05,0.0,0 STARLINK-5856,1 55914U 23037A   23098.45292791  .00006976  00000-0  59728-4 0  9993,2 55914  69.9990 120.1172 0003713 264.4767  95.6006 15.69928228  3935,6737.239,91.724,361.606,356.603,0.0
55914.0,STARLINK-5856,PAYLOAD,2023-04-09 09:48:29,15.6992776,0.000349,70.0013,117.4315,258.1964,101.884,3.1656e-05,3.596e-05,0.0,0 STARLINK-5856,1 55914U 23037A   23099.40867767  .00003596  00000-0  31656-4 0  9995,2 55914  70.0013 117.4315 0003490 258.1964 101.8840 15.69927760  4086,6737.241,91.724,361.457,356.754,0.0
55914.0,STARLINK-5856,PAYLOAD,2023-04-09 12:51:59,15.69928259,0.0003582,70.0002,117.0728,257.8127,102.2668,2.3079e-05,2.564e-05,0.0,0 STARLINK-5856,1 55914U 23037A   23099.53611093  .00002564  00000-0  23079-4 0  9992,2 55914  70.0002 117.0728 0003582 257.8127 102.2668 15.69928259  4455,6737.239,91.724,361.518,356.691,0.0
55914.0,STARLINK-5856,PAYLOAD,2023-04-10 13:20:01,15.69930421,0.0003545,69.9995,114.2062,259.7496,100.33,2.6221e-05,2.942e-05,0.0,0 STARLINK-5856,1 55914U 23037A   23100.55557748  .00002942  00000-0  26221-4 0  9995,2 55914  69.9995 114.2062 0003545 259.7496 100.3300 15.69930421  4267,6737.233,91.724,361.486,356.71,0.0
55914.0,STARLINK-5856,PAYLOAD,2023-04-10 17:55:17,15.69933925,0.000338,69.9998,113.6691,262.0451,98.0361,2.6318e-05,2.954e-05,0.0,0 STARLINK-5856,1 55914U 23037A   23100.74672606  .00002954  00000-0  26318-4 0  9997,2 55914  69.9998 113.6691 0003380 262.0451  98.0361 15.69933925  4640,6737.223,91.724,361.365,356.811,0.0
55914.0,STARLINK-5856,PAYLOAD,2023-04-11 13:48:14,15.69709621,0.0003335,69.9993,111.3403,261.9631,98.1186,-0.00039,-0.00046436,0.0,0 STARLINK-5856,1 55914U 23037A   23101.57516318 -.00046436  00000-0 -39000-3 0  9992,2 55914  69.9993 111.3403 0003335 261.9631  98.1186 15.69709621  4425,6737.865,91.737,361.977,357.483,0.0
55914.0,STARLINK-5856,PAYLOAD,2023-04-11 18:23:40,15.6952021,0.0002382,69.9992,110.8039,273.4733,86.619,-0.00071684,-0.00084119,0.0,0 STARLINK-5856,1 55914U 23037A   23101.76643805 -.00084119  00000-0 -71684-3 0  9999,2 55914  69.9992 110.8039 0002382 273.4733  86.6190 15.69520210  4450,6738.407,91.748,361.877,358.667,0.0
55914.0,STARLINK-5856,PAYLOAD,2023-04-12 14:00:01,15.67482325,0.0003396,70.0002,108.5109,272.333,19.0055,-0.0097435,-0.00961922,0.0,0 STARLINK-5856,1 55914U 23037A   23102.58334491 -.00961922  00000-0 -97435-2 0  9995,2 55914  70.0002 108.5109 0003396 272.3330  19.0055 15.67482325  4580,6744.246,91.867,368.401,363.821,0.0
55914.0,STARLINK-5856,PAYLOAD,2023-04-13 12:00:00,15.65668242,0.0003592,69.9999,105.9468,275.5795,143.8236,-0.0099943,-0.00920774,0.0,0 STARLINK-5856,1 55914U 23037A   23103.50001157 -.00920774  00000-0 -99943-2 0  9994,2 55914  69.9999 105.9468 0003592 275.5795 143.8236 15.65668242  1305,6749.455,91.974,373.744,368.895,0.0
55914.0,STARLINK-5856,PAYLOAD,2023-04-14 14:00:01,15.63561604,0.0003561,69.9998,102.9248,273.1673,126.3743,-0.011251,-0.00950161,0.0,0 STARLINK-5856,1 55914U 23037A   23104.58335648 -.00950161  00000-0 -11251-1 0  9996,2 55914  69.9998 102.9248 0003561 273.1673 126.3743 15.63561604  1303,6755.516,92.097,379.786,374.975,0.0
55914.0,STARLINK-5856,PAYLOAD,2023-04-15 08:00:01,15.62039904,0.0003541,69.9996,100.8386,272.0532,25.7286,-0.010641,-0.00855036,0.0,0 STARLINK-5856,1 55914U 23037A   23105.33334491 -.00855036  00000-0 -10641-1 0  9992,2 55914  69.9996 100.8386 0003541 272.0532  25.7286 15.62039904  5019,6759.902,92.187,384.161,379.374,0.0
55914.0,STARLINK-5856,PAYLOAD,2023-04-15 14:00:01,15.61619793,0.0003487,69.9992,100.144,270.8943,352.0851,-0.012519,-0.00976969,0.0,0 STARLINK-5856,1 55914U 23037A   23105.58334491 -.00976969  00000-0 -12519-1 0  9994,2 55914  69.9992 100.1440 0003487 270.8943 352.0851 15.61619793  1301,6761.115,92.212,385.337,380.622,0.0
55914.0,STARLINK-5856,PAYLOAD,2023-04-15 22:00:01,15.60935597,0.0003554,69.9995,99.2187,265.4962,70.4909,-0.011821,-0.00905229,0.0,0 STARLINK-5856,1 55914U 23037A   23105.91668981 -.00905229  00000-0 -11821-1 0  9991,2 55914  69.9995  99.2187 0003554 265.4962  70.4909 15.60935597  1303,6763.09,92.252,387.359,382.552,0.0
55914.0,STARLINK-5856,PAYLOAD,2023-04-16 10:00:00,15.59944451,0.0003363,69.9996,97.8323,270.4384,353.429,-0.012062,-0.00890435,0.0,0 STARLINK-5856,1 55914U 23037A   23106.41667824 -.00890435  00000-0 -12062-1 0  9992,2 55914  69.9996  97.8323 0003363 270.4384 353.4290 15.59944451  1306,6765.955,92.311,390.095,385.544,0.0
55914.0,STARLINK-5856,PAYLOAD,2023-04-16 22:00:00,15.58984915,0.0003259,69.9992,96.4484,262.2687,287.7707,-0.012915,-0.00916526,0.0,0 STARLINK-5856,1 55914U 23037A   23106.91667824 -.00916526  00000-0 -12915-1 0  9994,2 55914  69.9992  96.4484 0003259 262.2687 287.7707 15.58984915  1304,6768.731,92.368,392.802,388.39,0.0
55914.0,STARLINK-5856,PAYLOAD,2023-04-17 06:00:00,15.58288226,0.0003256,69.999,95.5267,267.4515,352.417,-0.012376,-0.00860475,0.0,0 STARLINK-5856,1 55914U 23037A   23107.25001157 -.00860475  00000-0 -12376-1 0  9995,2 55914  69.9990  95.5267 0003256 267.4515 352.4170 15.58288226  5316,6770.748,92.409,394.818,390.408,0.0
55914.0,STARLINK-5856,PAYLOAD,2023-04-17 14:00:01,15.57686875,0.0003301,69.9989,94.6058,267.6652,61.2138,-0.01407,-0.00947488,0.0,0 STARLINK-5856,1 55914U 23037A   23107.58334491 -.00947488  00000-0 -14070-1 0  9994,2 55914  69.9989  94.6058 0003301 267.6652  61.2138 15.57686875  1302,6772.49,92.445,396.591,392.12,0.0
55914.0,STARLINK-5856,PAYLOAD,2023-04-17 22:00:00,15.57034479,0.0003395,69.9993,93.6862,264.2799,132.8371,-0.01409,-0.0092785,0.0,0 STARLINK-5856,1 55914U 23037A   23107.91667824 -.00927850  00000-0 -14090-1 0  9993,2 55914  69.9993  93.6862 0003395 264.2799 132.8371 15.57034479  5414,6774.382,92.484,398.547,393.947,0.0
